{"type": "FeatureCollection", "features": [ {"type": "Feature", "properties": {"norad_id": 66613, "name": "STARLINK-36037", "group": "last-30-days", "lat": -8.983429865908784, "lon": -24.461568152431933, "alt_km": 444.87029714456094, "timestamp": "2025-12-20T20:38:43.171058+00:00", "meta": {"OBJECT_NAME": "STARLINK-36037", "OBJECT_ID": "2025-270AB", "EPOCH": "2025-12-20T12:01:52.945536", "MEAN_MOTION": 15.40708676, "ECCENTRICITY": 0.00019904, "INCLINATION": 42.9992, "RA_OF_ASC_NODE": 147.8396, "ARG_OF_PERICENTER": 282.6285, "MEAN_ANOMALY": 77.4349, "EPHEMERIS_TYPE": 0, "CLASSIFICATION_TYPE": "U", "NORAD_CAT_ID": 66613, "ELEMENT_SET_NO": 999, "REV_AT_EPOCH": 554, "BSTAR": 0.00058512423, "MEAN_MOTION_DOT": 0.00024223, "MEAN_MOTION_DDOT": 0}, "tle": {"line1": "1 66613U 25270AB  25354.50130724  .00024223  00000+0  58512-3 0  9995", "line2": "2 66613  42.9992 147.8396 0001990 282.6285  77.4349 15.40708676  5541"}}, "geometry": {"type": "Point", "coordinates": [-24.461568152431933, -8.983429865908784]}}, {"type": "Feature", "properties": {"norad_id": 66614, "name": "STARLINK-36040", "group": "last-30-days", "lat": -33.9177506749243, "lon": 99.31450642112416, "alt_km": 445.9260458956669, "timestamp": "2025-12-20T20:38:43.171069+00:00", "meta": {"OBJECT_NAME": "STARLINK-36040", "OBJECT_ID": "2025-270AC", "EPOCH": "2025-12-20T14:00:03.000384", "MEAN_MOTION": 15.40704019, "ECCENTRICITY": 0.00017514, "INCLINATION": 42.9999, "RA_OF_ASC_NODE": 147.0969, "ARG_OF_PERICENTER": 274.8639, "MEAN_ANOMALY": 292.8402, "EPHEMERIS_TYPE": 0, "CLASSIFICATION_TYPE": "U", "NORAD_CAT_ID": 66614, "ELEMENT_SET_NO": 999, "REV_AT_EPOCH": 550, "BSTAR": -3.5220946e-05, "MEAN_MOTION_DOT": -1.775e-05, "MEAN_MOTION_DDOT": 0}, "tle": {"line1": "1 66614U 25270AC  25354.58336806 -.00001775  00000+0 -35221-4 0  9995", "line2": "2 66614  42.9999 147.0969 0001751 274.8639 292.8402 15.40704019  5504"}}, "geometry": {"type": "Point", "coordinates": [99.31450642112416, -33.9177506749243]}}, {"type": "Feature", "properties": {"norad_id": 66615, "name": "STARLINK-35988", "group": "last-30-days", "lat": -31.79236306823336, "lon": 7.377402886113893, "alt_km": 446.01328145051684, "timestamp": "2025-12-20T20:38:43.171079+00:00", "meta": {"OBJECT_NAME": "STARLINK-35988", "OBJECT_ID": "2025-270AD", "EPOCH": "2025-12-20T11:52:11.756928", "MEAN_MOTION": 15.40711585, "ECCENTRICITY": 0.0001105, "INCLINATION": 42.9968, "RA_OF_ASC_NODE": 147.784, "ARG_OF_PERICENTER": 231.0551, "MEAN_ANOMALY": 129.0208, "EPHEMERIS_TYPE": 0, "CLASSIFICATION_TYPE": "U", "NORAD_CAT_ID": 66615, "ELEMENT_SET_NO": 999, "REV_AT_EPOCH": 538, "BSTAR": 0.00068763833, "MEAN_MOTION_DOT": 0.00028539, "MEAN_MOTION_DDOT": 0}, "tle": {"line1": "1 66615U 25270AD  25354.49458052  .00028539  00000+0  68764-3 0  9996", "line2": "2 66615  42.9968 147.7840 0001105 231.0551 129.0208 15.40711585  5384"}}, "geometry": {"type": "Point", "coordinates": [7.377402886113893, -31.79236306823336]}}, {"type": "Feature", "properties": {"norad_id": 66616, "name": "STARLINK-35391", "group": "last-30-days", "lat": -19.977810603171754, "lon": 122.47916532740767, "alt_km": 445.4967207987529, "timestamp": "2025-12-20T20:38:43.171089+00:00", "meta": {"OBJECT_NAME": "STARLINK-35391", "OBJECT_ID": "2025-270AE", "EPOCH": "2025-12-20T14:00:03.000384", "MEAN_MOTION": 15.40703493, "ECCENTRICITY": 0.00013927, "INCLINATION": 42.9999, "RA_OF_ASC_NODE": 147.0368, "ARG_OF_PERICENTER": 269.1806, "MEAN_ANOMALY": 323.4028, "EPHEMERIS_TYPE": 0, "CLASSIFICATION_TYPE": "U", "NORAD_CAT_ID": 66616, "ELEMENT_SET_NO": 999, "REV_AT_EPOCH": 576, "BSTAR": -1.7813579e-05, "MEAN_MOTION_DOT": -1.047e-05, "MEAN_MOTION_DDOT": 0}, "tle": {"line1": "1 66616U 25270AE  25354.58336806 -.00001047  00000+0 -17814-4 0  9997", "line2": "2 66616  42.9999 147.0368 0001392 269.1806 323.4028 15.40703493  5761"}}, "geometry": {"type": "Point", "coordinates": [122.47916532740767, -19.977810603171754]}}, {"type": "Feature", "properties": {"norad_id": 66617, "name": "STARLINK-35940", "group": "last-30-days", "lat": -14.805668022737432, "lon": -19.752001588885474, "alt_km": 449.93882145049247, "timestamp": "2025-12-20T20:38:43.171099+00:00", "meta": {"OBJECT_NAME": "STARLINK-35940", "OBJECT_ID": "2025-271A", "EPOCH": "2025-12-19T18:51:34.191360", "MEAN_MOTION": 15.39611645, "ECCENTRICITY": 0.0001164, "INCLINATION": 53.1596, "RA_OF_ASC_NODE": 153.8823, "ARG_OF_PERICENTER": 97.5747, "MEAN_ANOMALY": 262.539, "EPHEMERIS_TYPE": 0, "CLASSIFICATION_TYPE": "U", "NORAD_CAT_ID": 66617, "ELEMENT_SET_NO": 999, "REV_AT_EPOCH": 529, "BSTAR": 0.0001064, "MEAN_MOTION_DOT": 3.858e-05, "MEAN_MOTION_DDOT": 0}, "tle": {"line1": "1 66617U 25271A   25353.78581240  .00003858  00000+0  10640-3 0  9993", "line2": "2 66617  53.1596 153.8823 0001164  97.5747 262.5390 15.39611645  5292"}}, "geometry": {"type": "Point", "coordinates": [-19.752001588885474, -14.805668022737432]}}, {"type": "Feature", "properties": {"norad_id": 66618, "name": "STARLINK-35970", "group": "last-30-days", "lat": 52.86157000915578, "lon": -129.81282972066438, "alt_km": 421.11467412766433, "timestamp": "2025-12-20T20:38:43.171112+00:00", "meta": {"OBJECT_NAME": "STARLINK-35970", "OBJECT_ID": "2025-271B", "EPOCH": "2025-12-19T22:33:37.423008", "MEAN_MOTION": 15.46560751, "ECCENTRICITY": 0.0001439, "INCLINATION": 53.1597, "RA_OF_ASC_NODE": 152.703, "ARG_OF_PERICENTER": 41.703, "MEAN_ANOMALY": 318.4087, "EPHEMERIS_TYPE": 0, "CLASSIFICATION_TYPE": "U", "NORAD_CAT_ID": 66618, "ELEMENT_SET_NO": 999, "REV_AT_EPOCH": 532, "BSTAR": -0.0083391, "MEAN_MOTION_DOT": -0.0040083, "MEAN_MOTION_DDOT": 0}, "tle": {"line1": "1 66618U 25271B   25353.94001647 -.00400830  00000+0 -83391-2 0  9995", "line2": "2 66618  53.1597 152.7030 0001439  41.7030 318.4087 15.46560751  5320"}}, "geometry": {"type": "Point", "coordinates": [-129.81282972066438, 52.86157000915578]}}, {"type": "Feature", "properties": {"norad_id": 66619, "name": "STARLINK-35951", "group": "last-30-days", "lat": 30.496690929993505, "lon": 174.6196771450957, "alt_km": 423.3270371680592, "timestamp": "2025-12-20T20:38:43.171122+00:00", "meta": {"OBJECT_NAME": "STARLINK-35951", "OBJECT_ID": "2025-271C", "EPOCH": "2025-12-19T22:45:25.750080", "MEAN_MOTION": 15.46545275, "ECCENTRICITY": 0.0002872, "INCLINATION": 53.1623, "RA_OF_ASC_NODE": 152.7597, "ARG_OF_PERICENTER": 23.3692, "MEAN_ANOMALY": 336.7446, "EPHEMERIS_TYPE": 0, "CLASSIFICATION_TYPE": "U", "NORAD_CAT_ID": 66619, "ELEMENT_SET_NO": 999, "REV_AT_EPOCH": 532, "BSTAR": -0.0081194, "MEAN_MOTION_DOT": -0.0039068, "MEAN_MOTION_DDOT": 0}, "tle": {"line1": "1 66619U 25271C   25353.94821470 -.00390680  00000+0 -81194-2 0  9990", "line2": "2 66619  53.1623 152.7597 0002872  23.3692 336.7446 15.46545275  5327"}}, "geometry": {"type": "Point", "coordinates": [174.6196771450957, 30.496690929993505]}}, {"type": "Feature", "properties": {"norad_id": 66620, "name": "STARLINK-35936", "group": "last-30-days", "lat": 19.83604325989152, "lon": 164.13899094247537, "alt_km": 430.28592528595163, "timestamp": "2025-12-20T20:38:43.171132+00:00", "meta": {"OBJECT_NAME": "STARLINK-35936", "OBJECT_ID": "2025-271D", "EPOCH": "2025-12-19T22:47:58.481952", "MEAN_MOTION": 15.45204148, "ECCENTRICITY": 0.0001217, "INCLINATION": 53.1593, "RA_OF_ASC_NODE": 152.7719, "ARG_OF_PERICENTER": 60.4895, "MEAN_ANOMALY": 299.6234, "EPHEMERIS_TYPE": 0, "CLASSIFICATION_TYPE": "U", "NORAD_CAT_ID": 66620, "ELEMENT_SET_NO": 999, "REV_AT_EPOCH": 532, "BSTAR": -0.0084825, "MEAN_MOTION_DOT": -0.00389636, "MEAN_MOTION_DDOT": 0}, "tle": {"line1": "1 66620U 25271D   25353.94998243 -.00389636  00000+0 -84825-2 0  9998", "line2": "2 66620  53.1593 152.7719 0001217  60.4895 299.6234 15.45204148  5322"}}, "geometry": {"type": "Point", "coordinates": [164.13899094247537, 19.83604325989152]}}, {"type": "Feature", "properties": {"norad_id": 66621, "name": "STARLINK-35847", "group": "last-30-days", "lat": 53.139210714804385, "lon": -122.06148094991092, "alt_km": 420.61417385965615, "timestamp": "2025-12-20T20:38:43.171145+00:00", "meta": {"OBJECT_NAME": "STARLINK-35847", "OBJECT_ID": "2025-271E", "EPOCH": "2025-12-19T22:32:40.837056", "MEAN_MOTION": 15.4673989, "ECCENTRICITY": 5.74e-05, "INCLINATION": 53.1594, "RA_OF_ASC_NODE": 152.6978, "ARG_OF_PERICENTER": 182.8412, "MEAN_ANOMALY": 177.2593, "EPHEMERIS_TYPE": 0, "CLASSIFICATION_TYPE": "U", "NORAD_CAT_ID": 66621, "ELEMENT_SET_NO": 999, "REV_AT_EPOCH": 532, "BSTAR": -0.0053109, "MEAN_MOTION_DOT": -0.00261578, "MEAN_MOTION_DDOT": 0}, "tle": {"line1": "1 66621U 25271E   25353.93936154 -.00261578  00000+0 -53109-2 0  9996", "line2": "2 66621  53.1594 152.6978 0000574 182.8412 177.2593 15.46739890  5326"}}, "geometry": {"type": "Point", "coordinates": [-122.06148094991092, 53.139210714804385]}}, {"type": "Feature", "properties": {"norad_id": 66622, "name": "STARLINK-35950", "group": "last-30-days", "lat": -43.02036447601412, "lon": 104.21704022775505, "alt_km": 452.46524379214134, "timestamp": "2025-12-20T20:38:43.171155+00:00", "meta": {"OBJECT_NAME": "STARLINK-35950", "OBJECT_ID": "2025-271F", "EPOCH": "2025-12-20T14:00:03.000384", "MEAN_MOTION": 15.39629459, "ECCENTRICITY": 0.00012834, "INCLINATION": 53.1597, "RA_OF_ASC_NODE": 149.9191, "ARG_OF_PERICENTER": 88.5144, "MEAN_ANOMALY": 117.6703, "EPHEMERIS_TYPE": 0, "CLASSIFICATION_TYPE": "U", "NORAD_CAT_ID": 66622, "ELEMENT_SET_NO": 999, "REV_AT_EPOCH": 550, "BSTAR": -0.00018691667, "MEAN_MOTION_DOT": -7.87e-05, "MEAN_MOTION_DDOT": 0}, "tle": {"line1": "1 66622U 25271F   25354.58336806 -.00007870  00000+0 -18692-3 0  9999", "line2": "2 66622  53.1597 149.9191 0001283  88.5144 117.6703 15.39629459  5500"}}, "geometry": {"type": "Point", "coordinates": [104.21704022775505, -43.02036447601412]}}]}